STARLINK-3718           
1 52132U 22029AW  23331.91231269  .00002566  00000+0  17927-3 0  9990
2 52132  53.2141 207.6086 0001246  78.8039 281.3093 15.08837678 95214
STARLINK-3707           
1 52133U 22029AX  23331.89758721  .00003318  00000+0  22640-3 0  9999
2 52133  53.2147 207.6701 0001533 103.4530 256.6633 15.08847208 95210
STARLINK-3721           
1 52134U 22029AY  23331.90126888 -.00001691  00000+0 -88145-4 0  9992
2 52134  53.2154 207.6555 0001703  88.2898 271.8289 15.08846896 95210
STARLINK-3729           
1 52135U 22029AZ  23331.88751181  .00002246  00000+0  15917-3 0  9991
2 52135  53.2171 207.7294 0001463 101.5155 258.6002 15.08837634 95215
STARLINK-3720           
1 52136U 22029BA  23331.89390756  .00001402  00000+0  10617-3 0  9995
2 52136  53.2149 207.6870 0001353  98.4214 261.6931 15.08841996 95219
STARLINK-3733           
1 52137U 22029BB  23331.88287223  .00002778  00000+0  19255-3 0  9993
2 52137  53.2169 207.7336 0001666 109.6626 250.4546 15.08844756 95214
STARLINK-3723           
1 52138U 22029BC  23331.89023231  .00001384  00000+0  10505-3 0  9993
2 52138  53.2158 207.7050 0001669  81.9151 278.2030 15.08838047 95216
STARLINK-3730           
1 52139U 22029BD  23331.93714919 -.00001369  00000+0 -67925-4 0  9993
2 52139  53.2157 217.4912 0001590 105.9203 254.1964 15.08840565 95070
STARLINK-3682           
1 52140U 22029BE  23331.87919049  .00012412  00000+0  79637-3 0  9990
2 52140  53.2170 207.7541 0001514 102.0355 258.0807 15.08848774 95214
STARLINK-3810           
1 52261U 22041A   23331.94270225 -.00000172  00000+0  73397-5 0  9992
2 52261  53.2173 247.4773 0002259 132.7426 227.3757 15.08843655 88640
STARLINK-3761           
1 52262U 22041B   23331.94174630  .00005536  00000+0  36557-3 0  9999
2 52262  53.2182 247.4213 0001919 108.4566 251.6635 15.08848846 88649
STARLINK-3786           
1 52263U 22041C   23331.21679101 -.00004143  00000+0 -24243-3 0  9997
2 52263  53.2177 250.7246 0001350  87.1619 272.9528 15.08825751 88533
STARLINK-3795           
1 52264U 22041D   23331.80559950  .00003246  00000+0  22194-3 0  9996
2 52264  53.2170 248.0857 0001395 110.3967 249.7175 15.08841309 88626
STARLINK-3740           
1 52265U 22041E   23331.93439214  .00003460  00000+0  23539-3 0  9993
2 52265  53.2176 247.5000 0001041  90.0905 270.0207 15.08834288 88644
STARLINK-3739           
1 52266U 22041F   23331.93071333  .00011448  00000+0  73618-3 0  9996
2 52266  53.2179 247.5244 0001743  75.4531 284.6655 15.08841598 88649
STARLINK-3748           
1 52267U 22041G   23331.92703281  .00016861  00000+0  10749-2 0  9999
2 52267  53.2187 247.5398 0001490  75.5725 284.5432 15.08840420 88649
STARLINK-3746           
1 52268U 22041H   23331.17998222 -.00005248  00000+0 -31201-3 0  9994
2 52268  53.2165 250.8116 0001509 111.5606 248.5547 15.08824222 88538
STARLINK-3791           
1 52269U 22041J   23331.92335419  .00008413  00000+0  54616-3 0  9991
2 52269  53.2186 247.5569 0001646  84.9498 275.1682 15.08834141 88640
STARLINK-3804           
1 52270U 22041K   23331.91598534 -.00002486  00000+0 -13812-3 0  9990
2 52270  53.2182 247.6083 0001661 106.5332 253.5843 15.08840740 88646
STARLINK-3788           
1 52271U 22041L   23331.91966654  .00005301  00000+0  35086-3 0  9997
2 52271  53.2173 247.5667 0001471  83.7104 276.4056 15.08843767 88648
STARLINK-3781           
1 52272U 22041M   23331.91327321  .00001965  00000+0  14151-3 0  9992
2 52272  53.2182 247.6428 0001567  80.4304 279.6865 15.08843563 88644
STARLINK-3782           
1 52273U 22041N   23331.75230594  .00000034  00000+0  20232-4 0  9994
2 52273  53.2186 238.7055 0001562 103.0526 257.0640 15.08823883 88755
STARLINK-3790           
1 52274U 22041P   23331.11007356 -.00004482  00000+0 -26376-3 0  9990
2 52274  53.2172 251.2038 0001575 109.0106 251.1056 15.08827547 88528
STARLINK-3784           
1 52275U 22041Q   23331.91229270  .00000902  00000+0  74736-4 0  9995
2 52275  53.2176 247.6032 0001803 105.2612 254.8579 15.08868638 88649
STARLINK-3778           
1 52276U 22041R   23331.17263323 -.00004548  00000+0 -26789-3 0  9997
2 52276  53.2175 250.9234 0001563 107.1036 253.0127 15.08829038 88533
STARLINK-3787           
1 52277U 22041S   23331.93555329  .00380769  00000+0  51585-2 0  9993
2 52277  53.2136 214.2415 0011420 160.4313 199.7140 15.55807413 89120
STARLINK-3780           
1 52278U 22041T   23331.16897813 -.00055176  00000+0 -34873-2 0  9990
2 52278  53.2175 250.9438 0001666 107.4989 252.6185 15.08715749 88537
STARLINK-3686           
1 52279U 22041U   23331.91667824  .00104424  00000+0  22098-2 0  9996
2 52279  53.2228 213.0372 0007228 171.5334 190.2237 15.44302147  5932
STARLINK-3764           
1 52280U 22041V   23331.22415980 -.00004551  00000+0 -26819-3 0  9994
2 52280  53.2182 250.6893 0001537  86.6167 273.5001 15.08819462 88540
STARLINK-3779           
1 52281U 22041W   23331.10735579 -.00010832  00000+0 -66416-3 0  9997
2 52281  53.2173 251.2156 0001651  66.3862 293.7303 15.08804337 88526
STARLINK-3783           
1 52282U 22041X   23331.15147346 -.00003730  00000+0 -21647-3 0  9998
2 52282  53.2164 241.0179 0001553 100.4528 259.6640 15.08826264 88662
STARLINK-3789           
1 52283U 22041Y   23331.16526982 -.00003557  00000+0 -20562-3 0  9999
2 52283  53.2171 250.9554 0001558 120.7060 239.4086 15.08820053 88534
STARLINK-3561           
1 52284U 22041Z   23331.93899247  .00004435  00000+0  29657-3 0  9990
2 52284  53.2188 237.4801 0001618  84.4060 275.7117 15.08839163 88788
STARLINK-3775           
1 52285U 22041AA  23331.22783392  .00006320  00000+0  41514-3 0  9997
2 52285  53.2179 250.6759 0001612 111.1253 248.9911 15.08811437 88546
STARLINK-3802           
1 52286U 22041AB  23331.93162742  .00001485  00000+0  11133-3 0  9997
2 52286  53.2166 237.5179 0001481 108.0825 252.0329 15.08845990 88783
STARLINK-3822           
1 52287U 22041AC  23331.61791804 -.00001045  00000+0 -47579-4 0  9998
2 52287  53.2170 248.9275 0001617  78.8159 281.3015 15.08828037 88608
STARLINK-3776           
1 52288U 22041AD  23331.92796324  .00016881  00000+0  10762-2 0  9999
2 52288  53.2163 237.5388 0000783  83.2710 276.8372 15.08838666 88789
STARLINK-3751           
1 52289U 22041AE  23331.94267338  .00015494  00000+0  98923-3 0  9995
2 52289  53.2167 237.4687 0001354  80.4687 279.6458 15.08848794 88781
STARLINK-3772           
1 52290U 22041AF  23331.91786436 -.00000108  00000+0  11281-4 0  9999
2 52290  53.2169 237.5827 0001320  89.0345 271.0798 15.08828647 88789
STARLINK-3773           
1 52291U 22041AG  23331.93531648  .00010293  00000+0  66377-3 0  9995
2 52291  53.2181 237.5032 0001615  78.2593 281.8580 15.08843829 88781
STARLINK-3753           
1 52292U 22041AH  23331.91322946 -.00001372  00000+0 -68116-4 0  9997
2 52292  53.2172 237.6007 0001544 103.9983 256.1181 15.08842882 88785
STARLINK-3771           
1 52293U 22041AJ  23331.92523181  .00004605  00000+0  30723-3 0  9995
2 52293  53.2174 237.5546 0001407  98.9329 261.1822 15.08837377 88781
STARLINK-3777           
1 52294U 22041AK  23331.90955994  .00014608  00000+0  93367-3 0  9992
2 52294  53.2165 237.6162 0001464 105.4218 254.6936 15.08854430 88783
STARLINK-3765           
1 52295U 22041AL  23331.92058900 -.00000622  00000+0 -21005-4 0  9990
2 52295  53.2171 237.5677 0001432 109.0848 251.0299 15.08841152 88785
STARLINK-3766           
1 52296U 22041AM  23331.89850542  .00000998  00000+0  80790-4 0  9999
2 52296  53.2178 237.6721 0001654  80.3604 279.7574 15.08847165 88784
STARLINK-3758           
1 52297U 22041AN  23331.91690791 -.00001054  00000+0 -48117-4 0  9994
2 52297  53.2170 237.5886 0001532 112.4856 247.6298 15.08836838 88781
STARLINK-3760           
1 52298U 22041AP  23331.92422616 -.00000676  00000+0 -24349-4 0  9995
2 52298  53.2184 237.1671 0001780  46.1975 313.9164 15.08845105 88792
STARLINK-3759           
1 52299U 22041AQ  23331.90218694 -.00002765  00000+0 -15566-3 0  9994
2 52299  53.2178 237.6564 0001548  93.6910 266.4259 15.08842965 88787
STARLINK-3769           
1 52300U 22041AR  23331.88746800  .00005043  00000+0  33471-3 0  9994
2 52300  53.2159 237.7161 0001522  85.1860 274.9306 15.08839179 90003
STARLINK-3768           
1 52301U 22041AS  23331.90587449  .00002686  00000+0  18676-3 0  9990
2 52301  53.2158 237.6377 0001880  55.5294 304.5876 15.08849614 88789
STARLINK-3564           
1 52302U 22041AT  23331.87733744 -.00000482  00000+0 -12211-4 0  9992
2 52302  53.2161 227.7573 0001571  97.2577 262.8594 15.08853626 88912
STARLINK-3742           
1 52303U 22041AU  23331.89114727 -.00000220  00000+0  43076-5 0  9992
2 52303  53.2164 237.6991 0001684 123.6996 236.4157 15.08839299 90009
STARLINK-3744           
1 52304U 22041AV  23331.93991512  .00008439  00000+0  54777-3 0  9990
2 52304  53.2169 227.4805 0001655  93.5896 266.5286 15.08835358 88925
STARLINK-3724           
1 52305U 22041AW  23331.89483654 -.00001643  00000+0 -85119-4 0  9996
2 52305  53.2180 237.7844 0001587  79.2869 280.8302 15.08848352 88781
STARLINK-3747           
1 52306U 22041AX  23331.86998718 -.00002269  00000+0 -12450-3 0  9998
2 52306  53.2171 227.7929 0001533 113.1741 246.9412 15.08844834 90131
STARLINK-3755           
1 52307U 22041AY  23331.88379294  .00010495  00000+0  67659-3 0  9992
2 52307  53.2162 237.7353 0001439 113.6535 246.4609 15.08835574 88787
STARLINK-3745           
1 52308U 22041AZ  23331.92882389  .00040013  00000+0  21464-2 0  9994
2 52308  53.2150 226.1362 0006860 123.1751 236.9902 15.14584855 90161
STARLINK-3756           
1 52309U 22041BA  23331.93253824  .00015448  00000+0  98592-3 0  9993
2 52309  53.2174 227.5154 0002146  84.5802 275.5435 15.08863613 90145
STARLINK-3688           
1 52310U 22041BB  23331.92887923  .00011388  00000+0  73229-3 0  9996
2 52310  53.2161 227.5960 0001556  86.3198 273.7972 15.08846371 90148
